QIANFAN-65              
1 62795U 25016L   25355.09975265  .00000146  00000+0  20816-3 0  9996
2 62795  88.9766 102.1955 0012471 323.2822  36.7474 13.50986624 48372
QIANFAN-66              
1 62796U 25016M   25355.12857794  .00000145  00000+0  20604-3 0  9991
2 62796  88.9785 102.1643 0013512 317.8737  42.1375 13.50979443 48427
QIANFAN-67              
1 62797U 25016N   25355.13280431  .00000150  00000+0  21407-3 0  9999
2 62797  88.9775 102.1887 0013599 325.5241  34.5027 13.50983631 48397
QIANFAN-68              
1 62798U 25016P   25355.12448458  .00000147  00000+0  20862-3 0  9994
2 62798  88.9779 102.2350 0013616 323.6020  36.4204 13.50986010 48372
QIANFAN-69              
1 62799U 25016Q   25355.06689618  .00000133  00000+0  18729-3 0  9997
2 62799  88.9758 102.1085 0014382 324.8052  35.2148 13.50988687 48403
QIANFAN-70              
1 62800U 25016R   25355.15744213  .00000151  00000+0  21550-3 0  9999
2 62800  88.9779 102.2394 0013840 313.9641  46.0368 13.50979717 48378
QIANFAN-71              
1 62801U 25016S   25355.15324785  .00000100  00000+0  13689-3 0  9996
2 62801  88.9773 102.2188 0014366 328.3927  31.6360 13.50979182 48373
QIANFAN-72              
1 62802U 25016T   25355.16970402  .00000139  00000+0  19686-3 0  9996
2 62802  88.9763 102.2298 0017776 335.3346  24.6953 13.50986729 48360
